{"type": "FeatureCollection", "features": [ {"type": "Feature", "properties": {"norad_id": 32260, "name": "GPS BIIRM-4 (PRN 15)", "group": "gnss", "lat": 38.78342674858509, "lon": 123.05388990350026, "alt_km": 19816.772841219583, "timestamp": "2025-12-23T18:59:32.213189+00:00", "meta": {"OBJECT_NAME": "GPS BIIRM-4 (PRN 15)", "OBJECT_ID": "2007-047A", "EPOCH": "2025-12-22T05:26:06.407520", "MEAN_MOTION": 2.00564155, "ECCENTRICITY": 0.0163987, "INCLINATION": 53.9614, "RA_OF_ASC_NODE": 87.3666, "ARG_OF_PERICENTER": 85.3577, "MEAN_ANOMALY": 276.5274, "EPHEMERIS_TYPE": 0, "CLASSIFICATION_TYPE": "U", "NORAD_CAT_ID": 32260, "ELEMENT_SET_NO": 999, "REV_AT_EPOCH": 13326, "BSTAR": 0, "MEAN_MOTION_DOT": -1.3e-07, "MEAN_MOTION_DDOT": 0}, "tle": {"line1": "1 32260U 07047A   25356.22646305 -.00000013  00000+0  00000+0 0  9993", "line2": "2 32260  53.9614  87.3666 0163987  85.3577 276.5274  2.00564155133264"}}, "geometry": {"type": "Point", "coordinates": [123.05388990350026, 38.78342674858509]}}, {"type": "Feature", "properties": {"norad_id": 32275, "name": "COSMOS 2433 (720)", "group": "gnss", "lat": -58.77977932009073, "lon": -86.40490582165718, "alt_km": 19125.156873192973, "timestamp": "2025-12-23T18:59:32.213200+00:00", "meta": {"OBJECT_NAME": "COSMOS 2433 (720)", "OBJECT_ID": "2007-052A", "EPOCH": "2025-12-22T00:07:36.568704", "MEAN_MOTION": 2.13104226, "ECCENTRICITY": 0.00051704, "INCLINATION": 65.6781, "RA_OF_ASC_NODE": 321.8942, "ARG_OF_PERICENTER": 255.846, "MEAN_ANOMALY": 104.0915, "EPHEMERIS_TYPE": 0, "CLASSIFICATION_TYPE": "U", "NORAD_CAT_ID": 32275, "ELEMENT_SET_NO": 999, "REV_AT_EPOCH": 14128, "BSTAR": 0, "MEAN_MOTION_DOT": -4.2e-07, "MEAN_MOTION_DDOT": 0}, "tle": {"line1": "1 32275U 07052A   25356.00528436 -.00000042  00000+0  00000+0 0  9997", "line2": "2 32275  65.6781 321.8942 0005170 255.8460 104.0915  2.13104226141283"}}, "geometry": {"type": "Point", "coordinates": [-86.40490582165718, -58.77977932009073]}}, {"type": "Feature", "properties": {"norad_id": 32276, "name": "COSMOS 2432 (719)", "group": "gnss", "lat": -47.89889000289032, "lon": 171.93273002990904, "alt_km": 19130.327081805393, "timestamp": "2025-12-23T18:59:32.213209+00:00", "meta": {"OBJECT_NAME": "COSMOS 2432 (719)", "OBJECT_ID": "2007-052B", "EPOCH": "2025-12-23T06:07:11.644032", "MEAN_MOTION": 2.13103423, "ECCENTRICITY": 0.00113597, "INCLINATION": 65.6934, "RA_OF_ASC_NODE": 321.9768, "ARG_OF_PERICENTER": 314.4802, "MEAN_ANOMALY": 228.6315, "EPHEMERIS_TYPE": 0, "CLASSIFICATION_TYPE": "U", "NORAD_CAT_ID": 32276, "ELEMENT_SET_NO": 999, "REV_AT_EPOCH": 14133, "BSTAR": 0, "MEAN_MOTION_DOT": -3.6e-07, "MEAN_MOTION_DDOT": 0}, "tle": {"line1": "1 32276U 07052B   25357.25499588 -.00000036  00000+0  00000+0 0  9994", "line2": "2 32276  65.6934 321.9768 0011359 314.4802 228.6315  2.13103423141330"}}, "geometry": {"type": "Point", "coordinates": [171.93273002990904, -47.89889000289032]}}, {"type": "Feature", "properties": {"norad_id": 32384, "name": "GPS BIIRM-5 (PRN 29)", "group": "gnss", "lat": -1.356737653194462, "lon": 102.13801414155908, "alt_km": 20100.369108854153, "timestamp": "2025-12-23T18:59:32.213220+00:00", "meta": {"OBJECT_NAME": "GPS BIIRM-5 (PRN 29)", "OBJECT_ID": "2007-062A", "EPOCH": "2025-12-19T04:08:10.010976", "MEAN_MOTION": 2.00577702, "ECCENTRICITY": 0.00322663, "INCLINATION": 55.1765, "RA_OF_ASC_NODE": 281.388, "ARG_OF_PERICENTER": 162.2119, "MEAN_ANOMALY": 283.9132, "EPHEMERIS_TYPE": 0, "CLASSIFICATION_TYPE": "U", "NORAD_CAT_ID": 32384, "ELEMENT_SET_NO": 999, "REV_AT_EPOCH": 13190, "BSTAR": 0, "MEAN_MOTION_DOT": -3.8e-07, "MEAN_MOTION_DDOT": 0}, "tle": {"line1": "1 32384U 07062A   25353.17233809 -.00000038  00000+0  00000+0 0  9996", "line2": "2 32384  55.1765 281.3880 0032266 162.2119 283.9132  2.00577702131904"}}, "geometry": {"type": "Point", "coordinates": [102.13801414155908, -1.356737653194462]}}, {"type": "Feature", "properties": {"norad_id": 32393, "name": "COSMOS 2434 (721)", "group": "gnss", "lat": -0.7097392073104024, "lon": 18.176579682644984, "alt_km": 19134.416494952748, "timestamp": "2025-12-23T18:59:32.213230+00:00", "meta": {"OBJECT_NAME": "COSMOS 2434 (721)", "OBJECT_ID": "2007-065A", "EPOCH": "2025-12-22T08:26:32.754336", "MEAN_MOTION": 2.13101487, "ECCENTRICITY": 0.00048131, "INCLINATION": 64.3157, "RA_OF_ASC_NODE": 197.8788, "ARG_OF_PERICENTER": 72.4714, "MEAN_ANOMALY": 83.8697, "EPHEMERIS_TYPE": 0, "CLASSIFICATION_TYPE": "U", "NORAD_CAT_ID": 32393, "ELEMENT_SET_NO": 999, "REV_AT_EPOCH": 14000, "BSTAR": 0, "MEAN_MOTION_DOT": 9.5e-07, "MEAN_MOTION_DDOT": 0}, "tle": {"line1": "1 32393U 07065A   25356.35176799  .00000095  00000+0  00000+0 0  9998", "line2": "2 32393  64.3157 197.8788 0004813  72.4714  83.8697  2.13101487140000"}}, "geometry": {"type": "Point", "coordinates": [18.176579682644984, -0.7097392073104024]}}, {"type": "Feature", "properties": {"norad_id": 32395, "name": "COSMOS 2436 (723)", "group": "gnss", "lat": -40.779084840691645, "lon": 173.37627558868232, "alt_km": 19110.082530419575, "timestamp": "2025-12-23T18:59:32.213240+00:00", "meta": {"OBJECT_NAME": "COSMOS 2436 (723)", "OBJECT_ID": "2007-065C", "EPOCH": "2025-12-23T03:59:34.800000", "MEAN_MOTION": 2.13100231, "ECCENTRICITY": 0.00178059, "INCLINATION": 64.3245, "RA_OF_ASC_NODE": 197.9217, "ARG_OF_PERICENTER": 10.2027, "MEAN_ANOMALY": 184.1085, "EPHEMERIS_TYPE": 0, "CLASSIFICATION_TYPE": "U", "NORAD_CAT_ID": 32395, "ELEMENT_SET_NO": 999, "REV_AT_EPOCH": 13997, "BSTAR": 0, "MEAN_MOTION_DOT": 9.5e-07, "MEAN_MOTION_DDOT": 0}, "tle": {"line1": "1 32395U 07065C   25357.16637500  .00000095  00000+0  00000+0 0  9992", "line2": "2 32395  64.3245 197.9217 0017805  10.2027 184.1085  2.13100231139976"}}, "geometry": {"type": "Point", "coordinates": [173.37627558868232, -40.779084840691645]}}, {"type": "Feature", "properties": {"norad_id": 32711, "name": "GPS BIIRM-6 (PRN 07)", "group": "gnss", "lat": 52.13222340877691, "lon": -89.8212299143632, "alt_km": 20590.490462691345, "timestamp": "2025-12-23T18:59:32.213250+00:00", "meta": {"OBJECT_NAME": "GPS BIIRM-6 (PRN 07)", "OBJECT_ID": "2008-012A", "EPOCH": "2025-12-21T15:33:12.168000", "MEAN_MOTION": 2.00566008, "ECCENTRICITY": 0.02028329, "INCLINATION": 54.478, "RA_OF_ASC_NODE": 157.0174, "ARG_OF_PERICENTER": 245.0507, "MEAN_ANOMALY": 112.8153, "EPHEMERIS_TYPE": 0, "CLASSIFICATION_TYPE": "U", "NORAD_CAT_ID": 32711, "ELEMENT_SET_NO": 999, "REV_AT_EPOCH": 13019, "BSTAR": 0, "MEAN_MOTION_DOT": 7e-07, "MEAN_MOTION_DDOT": 0}, "tle": {"line1": "1 32711U 08012A   25355.64805750  .00000070  00000+0  00000+0 0  9995", "line2": "2 32711  54.4780 157.0174 0202832 245.0507 112.8153  2.00566008130191"}}, "geometry": {"type": "Point", "coordinates": [-89.8212299143632, 52.13222340877691]}}, {"type": "Feature", "properties": {"norad_id": 35752, "name": "GPS BIIRM-8 (PRN 05)", "group": "gnss", "lat": 42.3566545271833, "lon": 176.56799144898008, "alt_km": 20077.854782169503, "timestamp": "2025-12-23T18:59:32.213261+00:00", "meta": {"OBJECT_NAME": "GPS BIIRM-8 (PRN 05)", "OBJECT_ID": "2009-043A", "EPOCH": "2025-12-22T09:03:38.471040", "MEAN_MOTION": 2.00565138, "ECCENTRICITY": 0.00515987, "INCLINATION": 56.0976, "RA_OF_ASC_NODE": 34.4031, "ARG_OF_PERICENTER": 81.7402, "MEAN_ANOMALY": 102.7505, "EPHEMERIS_TYPE": 0, "CLASSIFICATION_TYPE": "U", "NORAD_CAT_ID": 35752, "ELEMENT_SET_NO": 999, "REV_AT_EPOCH": 11981, "BSTAR": 0, "MEAN_MOTION_DOT": -5.3e-07, "MEAN_MOTION_DDOT": 0}, "tle": {"line1": "1 35752U 09043A   25356.37752860 -.00000053  00000+0  00000+0 0  9994", "line2": "2 35752  56.0976  34.4031 0051598  81.7402 102.7505  2.00565138119812"}}, "geometry": {"type": "Point", "coordinates": [176.56799144898008, 42.3566545271833]}}, {"type": "Feature", "properties": {"norad_id": 36111, "name": "COSMOS 2456 (730)", "group": "gnss", "lat": -19.963070729463524, "lon": 67.18912992730601, "alt_km": 19125.97800857198, "timestamp": "2025-12-23T18:59:32.213271+00:00", "meta": {"OBJECT_NAME": "COSMOS 2456 (730)", "OBJECT_ID": "2009-070A", "EPOCH": "2025-12-23T08:10:18.888096", "MEAN_MOTION": 2.13103774, "ECCENTRICITY": 0.00036109, "INCLINATION": 64.9055, "RA_OF_ASC_NODE": 76.9756, "ARG_OF_PERICENTER": 295.3784, "MEAN_ANOMALY": 56.6202, "EPHEMERIS_TYPE": 0, "CLASSIFICATION_TYPE": "U", "NORAD_CAT_ID": 36111, "ELEMENT_SET_NO": 999, "REV_AT_EPOCH": 12467, "BSTAR": 0, "MEAN_MOTION_DOT": -1e-08, "MEAN_MOTION_DDOT": 0}, "tle": {"line1": "1 36111U 09070A   25357.34049639 -.00000001  00000+0  00000+0 0  9998", "line2": "2 36111  64.9055  76.9756 0003610 295.3784  56.6202  2.13103774124670"}}, "geometry": {"type": "Point", "coordinates": [67.18912992730601, -19.963070729463524]}}, {"type": "Feature", "properties": {"norad_id": 36112, "name": "COSMOS 2457 (733)", "group": "gnss", "lat": 60.078992045169755, "lon": -157.6201564078077, "alt_km": 19117.008803351433, "timestamp": "2025-12-23T18:59:32.213281+00:00", "meta": {"OBJECT_NAME": "COSMOS 2457 (733)", "OBJECT_ID": "2009-070B", "EPOCH": "2025-12-23T04:05:37.472640", "MEAN_MOTION": 2.13101144, "ECCENTRICITY": 0.00044981, "INCLINATION": 64.891, "RA_OF_ASC_NODE": 76.8287, "ARG_OF_PERICENTER": 163.0286, "MEAN_ANOMALY": 187.6554, "EPHEMERIS_TYPE": 0, "CLASSIFICATION_TYPE": "U", "NORAD_CAT_ID": 36112, "ELEMENT_SET_NO": 999, "REV_AT_EPOCH": 12467, "BSTAR": 0, "MEAN_MOTION_DOT": -2e-08, "MEAN_MOTION_DDOT": 0}, "tle": {"line1": "1 36112U 09070B   25357.17057260 -.00000002  00000+0  00000+0 0  9990", "line2": "2 36112  64.8910  76.8287 0004498 163.0286 187.6554  2.13101144124675"}}, "geometry": {"type": "Point", "coordinates": [-157.6201564078077, 60.078992045169755]}}]}